#aV2009  2 10  0  0   .00000000      96 DD+AD WGS84 FIT  NGA
## 1518 172800.00000000   900.00000000 54872  .0000000000000
+   31     2  3  4  5  6  7  8  9 10 11 12 13 14 15 16 17 18
+         19 20 21 22 23 24 25 26 27 28 29 30 31 32  0  0  0
+          0  0  0  0  0  0  0  0  0  0  0  0  0  0  0  0  0
+          0  0  0  0  0  0  0  0  0  0  0  0  0  0  0  0  0
+          0  0  0  0  0  0  0  0  0  0  0  0  0  0  0  0  0
++         0  0  0  0  0  0  0  0  0  0  0  0  0  0  0  0  0
++         0  0  0  0  0  0  0  0  0  0  0  0  0  0  0  0  0
++         0  0  0  0  0  0  0  0  0  0  0  0  0  0  0  0  0
++         0  0  0  0  0  0  0  0  0  0  0  0  0  0  0  0  0
++         0  0  0  0  0  0  0  0  0  0  0  0  0  0  0  0  0
%c cc cc ccc ccc cccc cccc cccc cccc ccccc ccccc ccccc ccccc
%c cc cc ccc ccc cccc cccc cccc cccc ccccc ccccc ccccc ccccc
%f  0.0000000  0.000000000  0.00000000000  0.000000000000000
%f  0.0000000  0.000000000  0.00000000000  0.000000000000000
%i    0    0    0    0      0      0      0      0         0
%i    0    0    0    0      0      0      0      0         0
/*      NGA, ST. LOUIS,MO.                                  
/*   EPHEMERIS COMPUTED FROM  3 DAYS OF DATA                
/* CCCCCCCCCCCCCCCCCCCCCCCCCCCCCCCCCCCCCCCCCCCCCCCCCCCCCCCCC
/* CCCCCCCCCCCCCCCCCCCCCCCCCCCCCCCCCCCCCCCCCCCCCCCCCCCCCCCCC
*  2009  2 10 11 45   .00000000                                                 
P  2 -13403.400149 -16098.038369 -16672.710129    157.911038                    
V  2    315.032312 -20933.987962  19713.250380      -.013665                    
P  3  24619.233673  10367.791604  -1792.272905    351.077041                    
V  3  -3010.545744   2692.092580 -30644.028785       .053176                    
P  4  -6133.007753 -24854.791913  -6433.803763   -331.439318                    
V  4   3115.232465  -8306.848648  30083.810733      -.139438                    
P  5 -21546.105946  15152.515267   2531.875942   -658.091838                    
V  5    627.274011  -4920.812099  31266.997136      -.454849                    
P  6  22219.639969  13690.765573  -4832.577343     61.996151                    
V  6  -7282.037825    689.294281 -30322.206424      -.142579                    
P  7   7694.463475 -21729.169555 -13114.162527     22.771185                    
V  7   3268.082182  16483.650313 -25529.739883      -.003315                    
P  8    251.513385 -26279.148884   -617.237971   -190.016149                    
V  8   2413.984827    712.096243 -32643.502498      -.016229                    
P  9 -13845.046499   6062.671456  21186.440726     39.695757                    
V  9  -3349.670687 -28220.044057   5818.346595       .020261                    
P 10 -19438.524900  -2803.557598 -18192.969942    -10.912724                    
V 10  18449.929679 -13233.243297 -17490.053584      -.006263                    
P 11  14756.479191  -8230.982797  20255.555391      7.956200                    
V 11   8023.832476  25323.828065   4755.770811      -.011852                    
P 12 -23479.048765  11169.141888   5216.685209   -317.419271                    
V 12   4003.163170  -5817.795684  31020.092151       .037340                    
P 13  10479.304164 -10558.398005 -22122.280563    288.084204                    
V 13  24008.404468  13831.209353   4808.811794       .013064                    
P 14   9925.400579  18034.096436  16964.306761   -156.166045                    
V 14 -19203.074497  -9067.579775  20920.843600       .053473                    
P 15 -24617.269801  -4904.992892   8788.707028   -254.724251                    
V 15  -8885.623021  -7171.666661 -28939.071901      -.052891                    
P 16  14283.678750   7979.290284 -20907.428803     75.685703                    
V 16 -22106.800830  14838.058322  -9191.562131      -.028015                    
P 17  -7504.567575 -18091.549422  18077.040296     46.652681                    
V 17  20930.992254   9113.795479  17678.356753       .012221                    
P 18 -12770.676692  19142.978157  13150.628345    -84.722450                    
V 18 -15559.098150   6297.695215 -25034.262304       .035940                    
P 19  23699.318336   4651.468844  11375.661482     32.628951                    
V 19  11136.751383   9217.155163 -26895.589443      -.005981                    
P 20  22617.960173 -13635.290842   2435.696439     91.183037                    
V 20   -723.092538   4651.336653  31193.815019      -.010968                    
P 21  -5414.995167  24068.244389  -8739.872041     29.725550                    
V 21  -4392.128194 -11467.072189 -28742.768451      -.018409                    
P 22  -1733.820152  17881.161757  19699.783187    205.346801                    
V 22 -21842.034134  11754.270844 -12750.033398      -.005075                    
P 23  19438.468620  -3912.381505 -17849.153262    386.752801                    
V 23  19488.316492  11200.399898  18556.434726       .006641                    
P 24 -13171.826537  13455.630993 -18699.984341    164.458725                    
V 24  -1773.486210 -23946.027784 -15600.294736       .030292                    
P 25   9848.113003 -16623.630970 -17950.615942    233.089600                    
V 25   5139.998399  22907.858764 -17850.111907       .249251                    
P 26 -24087.664862 -11359.530544   2898.583133     43.499179                    
V 26  -3038.304119  -3273.136628 -31834.677579       .029334                    
P 27  -9476.200979 -23105.438514   9641.851249     23.546080                    
V 27    697.672862 -11451.671143 -28864.195418       .031145                    
P 28   3844.590512 -18136.922977  19312.768759    -23.716341                    
V 28  20855.364112 -11419.851286 -15531.470570       .001063                    
P 29 -11856.046485  10530.327670 -21199.984918    -11.246504                    
V 29 -23760.656452 -13184.038010   6741.608580       .032964                    
P 30 -17765.829708  18690.714976  -6530.070056    125.418932                    
V 30  -8116.127615   2202.219262  30128.333528       .024386                    
P 31   7365.484959  23943.827466  -8411.530595    -51.048683                    
V 31  -1713.132754  11143.817479  29592.842085      -.013822                    
P 32  24088.051063  -5449.166254   9853.635216    296.636506                    
V 32  -9326.195143   7946.762084  28599.440132      -.032878                    
EOF
